ALOS-2                  
1 39766U 14029A   26194.58361574  .00001129  00000+0  15801-3 0  9998
2 39766  97.9230 291.3702 0001621  93.0159 267.1238 14.79473156655488
KAZEOSAT 2              
1 40010U 14033A   26194.56766859  .00000446  00000+0  57418-4 0  9992
2 40010  97.5397  32.7847 0007335 225.8090 134.2524 14.85498689652873
HODOYOSHI-4             
1 40011U 14033B   26194.59341084  .00000814  00000+0  93556-4 0  9997
2 40011  97.5454  18.1430 0022605 215.1100 144.8629 14.88185754652732
DEIMOS-2                
1 40013U 14033D   26194.64291184  .00000347  00000+0  37841-4 0  9996
2 40013  97.5801  68.1989 0000834  97.1449 262.9866 14.93791129641679
HODOYOSHI-3             
1 40015U 14033F   26194.45645646  .00000486  00000+0  62096-4 0  9997
2 40015  97.6442 356.4440 0031289 267.9107  91.8526 14.85435370651525
SPOT 7                  
1 40053U 14034A   26194.61813885  .00000470  00000+0  10507-3 0  9992
2 40053  98.0624 256.4273 0001607  94.9993 265.1392 14.60981027640993
SKYSAT-B                
1 40072U 14037D   26194.41688457  .00000629  00000+0  75129-4 0  9997
2 40072  98.3853 154.8803 0005434 178.0449 182.0788 14.88089685649863
WORLDVIEW-3 (WV-3)      
1 40115U 14048A   26194.64745809  .00000422  00000+0  55603-4 0  9993
2 40115  97.8558 269.1142 0001185 158.4015 201.7251 14.85062768645830
GAOFEN-2                
1 40118U 14049A   26194.59506000  .00000445  00000+0  64448-4 0  9991
2 40118  98.0104 258.7755 0008130 139.1403 221.0420 14.80926181643149
YAOGAN-21               
1 40143U 14053A   26194.64431117  .00007064  00000+0  27096-3 0  9997
2 40143  97.1465 233.7482 0007972  13.4491 346.6960 15.26751694658999
YAOGAN-22               
1 40275U 14063A   26194.42329667 -.00000062  00000+0 -39220-4 0  9992
2 40275 100.7759 346.1359 0006837 128.8633 231.3089 13.15531621563261
ASNARO                  
1 40298U 14070A   26194.56420593  .00006696  00000+0  31543-3 0  9996
2 40298  97.3451 269.9696 0006797  93.0037 267.1976 15.19817075648013
YAOGAN-24               
1 40310U 14072A   26194.65382442  .00000160  00000+0  30796-4 0  9993
2 40310  98.1514 332.2171 0014477 174.4372 185.7001 14.76116877627621
CBERS 4                 
1 40336U 14079A   26194.59358720  .00000190  00000+0  80881-4 0  9996
2 40336  98.3525 250.5949 0000881  51.6945 308.4321 14.35516221607746
YAOGAN-26               
1 40362U 14088A   26194.63879161  .00013550  00000+0  25723-3 0  9994
2 40362  97.0643 194.2466 0002192 349.9959  10.1249 15.48402692641795
SMAP                    
1 40376U 15003A   26194.60971045  .00000202  00000+0  48104-4 0  9997
2 40376  98.1283 201.3307 0001588  95.3512 264.7871 14.63388355611487
KOMPSAT-3A              
1 40536U 15014A   26194.63141339  .00019594  00000+0  26989-3 0  9995
2 40536  97.6885 187.9547 0056417  81.1562 279.6074 15.55359711625921
SENTINEL-2A             
1 40697U 15028A   26194.64825954  .00000204  00000+0  94615-4 0  9991
2 40697  98.5684 269.1233 0001287  95.0996 265.0334 14.30814718577515
GAOFEN-8                
1 40701U 15030A   26194.61760670  .00016830  00000+0  33544-3 0  9995
2 40701  97.6891  29.5926 0010026 100.9125 259.3252 15.46910918615536
CARBONITE 1 (CBNT-1)    
1 40718U 15032D   26194.62051539  .00000298  00000+0  42189-4 0  9990
2 40718  97.6515  11.5827 0013709 202.5264 157.5351 14.83663422593261
YAOGAN-27               
1 40878U 15040A   26194.63583794  .00000090  00000+0  34777-3 0  9993
2 40878 100.1160 179.8719 0008477 148.4903 211.6720 13.16071260521144
GAOFEN-9 01             
1 40894U 15047A   26194.64832877  .00000496  00000+0  66953-4 0  9990
2 40894  97.6271 229.1397 0028553  55.3601 305.0300 14.82933318584117
YAOGAN-28               
1 41026U 15064A   26194.65573516  .00003963  00000+0  14862-3 0  9993
2 41026  97.3103 332.3880 0012080  97.7796 262.4815 15.27747140594724
YAOGAN-29               
1 41038U 15069A   26194.62511061  .00000119  00000+0  21256-4 0  9991
2 41038  98.0023 223.2981 0000881  12.4859 347.6376 14.83104773574542
KENT RIDGE 1            
1 41167U 15077B   26193.89805858  .00002563  00000+0  73737-4 0  9997
2 41167  14.9801  74.7485 0008280 242.6265 117.3215 15.23276730585020
GAOFEN-4                
1 41194U 15083A   26194.58190127 -.00000340  00000+0  00000+0 0  9997
2 41194   0.4231  83.8395 0003700 125.6902  37.0996  1.00283169 38793
JASON-3                 
1 41240U 16002A   26194.56586720 -.00000023  00000+0  15600-3 0  9991
2 41240  66.0416  70.3780 0008199 271.1013  88.9067 12.87628557490645
SENTINEL-3A             
1 41335U 16011A   26194.58539250  .00000046  00000+0  37197-4 0  9994
2 41335  98.6238 261.5883 0001370  90.7363 269.3974 14.26739503541826
ZIYUAN 3-02 (ZY 3-02)   
1 41556U 16033A   26194.63113793  .00002967  00000+0  13494-3 0  9996
2 41556  97.3832 269.8968 0013900 190.3630 169.7322 15.21424885562001
CARTOSAT-2C             
1 41599U 16040A   26194.60391288  .00004071  00000+0  19615-3 0  9994
2 41599  97.4477 254.2162 0009745  50.4484 309.7610 15.19260111557729
