OBJECT_NAME,OBJECT_ID,EPOCH,MEAN_MOTION,ECCENTRICITY,INCLINATION,RA_OF_ASC_NODE,ARG_OF_PERICENTER,MEAN_ANOMALY,EPHEMERIS_TYPE,CLASSIFICATION_TYPE,NORAD_CAT_ID,ELEMENT_SET_NO,REV_AT_EPOCH,BSTAR,MEAN_MOTION_DOT,MEAN_MOTION_DDOT
ALOS-2,2014-029A,2026-07-13T14:00:24.399936,14.79473156,.00016214,97.9230,291.3702,93.0159,267.1238,0,U,39766,999,65548,.15801486E-3,.1129E-4,0
KAZEOSAT 2,2014-033A,2026-07-13T13:37:26.566176,14.85498689,.00073356,97.5397,32.7847,225.8090,134.2524,0,U,40010,999,65287,.57418004E-4,.446E-5,0
HODOYOSHI-4,2014-033B,2026-07-13T14:14:30.696576,14.88185754,.00226058,97.5454,18.1430,215.1100,144.8629,0,U,40011,999,65273,.93555649E-4,.814E-5,0
DEIMOS-2,2014-033D,2026-07-13T15:25:47.582976,14.93791129,.00008349,97.5801,68.1989,97.1449,262.9866,0,U,40013,999,64167,.3784061E-4,.347E-5,0
HODOYOSHI-3,2014-033F,2026-07-13T10:57:17.838144,14.85435370,.00312893,97.6442,356.4440,267.9107,91.8526,0,U,40015,999,65152,.62095972E-4,.486E-5,0
SPOT 7,2014-034A,2026-07-13T14:50:07.196640,14.60981027,.00016072,98.0624,256.4273,94.9993,265.1392,0,U,40053,999,64099,.10507339E-3,.47E-5,0
SKYSAT-B,2014-037D,2026-07-13T10:00:18.826848,14.88089685,.00054345,98.3853,154.8803,178.0449,182.0788,0,U,40072,999,64986,.75129115E-4,.629E-5,0
WORLDVIEW-3 (WV-3),2014-048A,2026-07-13T15:32:20.378976,14.85062768,.00011854,97.8558,269.1142,158.4015,201.7251,0,U,40115,999,64583,.55602778E-4,.422E-5,0
GAOFEN-2,2014-049A,2026-07-13T14:16:53.184000,14.80926181,.00081306,98.0104,258.7755,139.1403,221.0420,0,U,40118,999,64314,.64448263E-4,.445E-5,0
YAOGAN-21,2014-053A,2026-07-13T15:27:48.485088,15.26751694,.00079725,97.1465,233.7482,13.4491,346.6960,0,U,40143,999,65899,.2709644E-3,.7064E-4,0
YAOGAN-22,2014-063A,2026-07-13T10:09:32.832288,13.15531621,.00068372,100.7759,346.1359,128.8633,231.3089,0,U,40275,999,56326,-.39219674E-4,-.62E-6,0
ASNARO,2014-070A,2026-07-13T13:32:27.392352,15.19817075,.00067975,97.3451,269.9696,93.0037,267.1976,0,U,40298,999,64801,.31543147E-3,.6696E-4,0
YAOGAN-24,2014-072A,2026-07-13T15:41:30.429888,14.76116877,.00144773,98.1514,332.2171,174.4372,185.7001,0,U,40310,999,62762,.30795506E-4,.16E-5,0
CBERS 4,2014-079A,2026-07-13T14:14:45.934080,14.35516221,.00008813,98.3525,250.5949,51.6945,308.4321,0,U,40336,999,60774,.80881048E-4,.19E-5,0
YAOGAN-26,2014-088A,2026-07-13T15:19:51.595104,15.48402692,.00021921,97.0643,194.2466,349.9959,10.1249,0,U,40362,999,64179,.25723447E-3,.1355E-3,0
SMAP,2015-003A,2026-07-13T14:37:58.982880,14.63388355,.00015886,98.1283,201.3307,95.3512,264.7871,0,U,40376,999,61148,.48103919E-4,.202E-5,0
KOMPSAT-3A,2015-014A,2026-07-13T15:09:14.116896,15.55359711,.0056417,97.6885,187.9547,81.1562,279.6074,0,U,40536,999,62592,.26989085E-3,.19594E-3,0
SENTINEL-2A,2015-028A,2026-07-13T15:33:29.624256,14.30814718,.00012879,98.5684,269.1233,95.0996,265.0334,0,U,40697,999,57751,.94614547E-4,.204E-5,0
GAOFEN-8,2015-030A,2026-07-13T14:49:21.218880,15.46910918,.00100267,97.6891,29.5926,100.9125,259.3252,0,U,40701,999,61553,.33543681E-3,.1683E-3,0
CARBONITE 1 (CBNT-1),2015-032D,2026-07-13T14:53:32.529696,14.83663422,.00137096,97.6515,11.5827,202.5264,157.5351,0,U,40718,999,59326,.4218928E-4,.298E-5,0
YAOGAN-27,2015-040A,2026-07-13T15:15:36.398016,13.16071260,.00084779,100.1160,179.8719,148.4903,211.6720,0,U,40878,999,52114,.34776681E-3,.9E-6,0
GAOFEN-9 01,2015-047A,2026-07-13T15:33:35.605728,14.82933318,.00285535,97.6271,229.1397,55.3601,305.0300,0,U,40894,999,58411,.66953313E-4,.496E-5,0
YAOGAN-28,2015-064A,2026-07-13T15:44:15.517824,15.27747140,.00120806,97.3103,332.3880,97.7796,262.4815,0,U,41026,999,59472,.14861921E-3,.3963E-4,0
YAOGAN-29,2015-069A,2026-07-13T15:00:09.556704,14.83104773,.00008815,98.0023,223.2981,12.4859,347.6376,0,U,41038,999,57454,.21256063E-4,.119E-5,0
KENT RIDGE 1,2015-077B,2026-07-12T21:33:12.261312,15.23276730,.00082804,14.9801,74.7485,242.6265,117.3215,0,U,41167,999,58502,.73736956E-4,.2563E-4,0
GAOFEN-4,2015-083A,2026-07-13T13:57:56.269728,1.00283169,.00037007,0.4231,83.8395,125.6902,37.0996,0,U,41194,999,3879,0,-.34E-5,0
JASON-3,2016-002A,2026-07-13T13:34:50.926080,12.87628557,.0008199,66.0416,70.3780,271.1013,88.9067,0,U,41240,999,49064,.15600211E-3,-.23E-6,0
SENTINEL-3A,2016-011A,2026-07-13T14:02:57.912000,14.26739503,.00013703,98.6238,261.5883,90.7363,269.3974,0,U,41335,999,54182,.37197341E-4,.46E-6,0
ZIYUAN 3-02 (ZY 3-02),2016-033A,2026-07-13T15:08:50.317152,15.21424885,.00139007,97.3832,269.8968,190.3630,169.7322,0,U,41556,999,56200,.13493574E-3,.2967E-4,0
CARTOSAT-2C,2016-040A,2026-07-13T14:29:38.072832,15.19260111,.00097452,97.4477,254.2162,50.4484,309.7610,0,U,41599,999,55772,.19615423E-3,.4071E-4,0
